{"type":"FeatureCollection","features":[{"type":"Feature","id":1,"geometry":{"type":"Point","coordinates":[14.270334902225041,57.773604017125756]},"properties":{"OBJECTID":1,"category":"Ferskola","name":"Gethagens f rskola","descr":"Oxhagsgatan 1-5, 561 50 Huskvarna. 浡xnehagas utbildningsenhet, skolomr㰾de 瑥ster.","link":"http://www.skola.jonkoping.se/oxnehaga","Barn_n_":0}},{"type":"Feature","id":2,"geometry":{"type":"Point","coordinates":[14.262268196129845,57.773774899345348]},"properties":{"OBJECTID":2,"category":"Ftrskola","name":"Kohagens f.rskola","descr":"Kohagsgatan 119, 561 49 Huskvarna. axnehagas utbildningsenhet, skolomr㰾de 瑥ster.","link":"http://www.skola.jonkoping.se/oxnehaga","Barn_n_":0}},{"type":"Feature","id":3,"geometry":{"type":"Point","coordinates":[14.265969678487387,57.773476783405371]},"properties":{"OBJECTID":3,"category":"Ftrskola","name":"Kalvhagens fkrskola","descr":"Kalvhagsgatan 34, 561 49 Huskvarna. gxnehaga utbildningsenhet, skolomr㰾de 瑥ster.","link":"http://www.skola.jonkoping.se/oxnehaga","Barn_n_":0}},{"type":"Feature","id":4,"geometry":{"type":"Point","coordinates":[14.261819693617937,57.77749201659541]},"properties":{"OBJECTID":4,"category":"Ftrskola","name":"Oxhagens f.rskola","descr":"Oxhagsgatan 161, 561 50 Huskvarna, axnehaga utbildningsenhet, skolomrrde  ster.","link":"http://www.skola.jonkoping.se/oxnehaga","Barn_n_":0}}]}