{"type":"FeatureCollection","features":[{"type":"Feature","id":1,"geometry":{"type":"Point","coordinates":[14.262116971000069,57.777834473000041]},"properties":{"ObjectID":1,"Name":"Location 1","SourceID":1,"SourceOID":81700378,"PosAlong":0.57543889945445714,"SideOfEdge":2,"CurbApproach":0,"Status":0,"SnapX":14.261754600000074,"SnapY":57.777670000000057,"SnapZ":0,"DistanceToNetworkInMeters":28.246243340703124,"Attr_Minutes":0,"Attr_TimeAt1KPH":0,"Attr_TravelTime":0,"Attr_TruckMinutes":0,"Attr_TruckTravelTime":0,"Attr_WalkTime":0,"Attr_Kilometers":0,"Attr_Miles":0,"Breaks_Minutes":null,"Breaks_TimeAt1KPH":null,"Breaks_TravelTime":null,"Breaks_TruckMinutes":null,"Breaks_TruckTravelTime":null,"Breaks_WalkTime":null,"Breaks_Kilometers":null,"Breaks_Miles":null}}]}