{"type":"FeatureCollection","features":[{"type":"Feature","id":5,"geometry":{"type":"MultiPolygon","coordinates":[[[[14.266663772000072,57.793650762000027],[14.265091728000073,57.793201607000071],[14.264193417000058,57.79118040600008],[14.260151016000066,57.79118040600008],[14.259701861000053,57.790282095000066],[14.261049327000023,57.78893462800005],[14.264417994000041,57.78893462800005],[14.264193417000058,57.789608362000081],[14.265091728000073,57.790506673000039],[14.26621461700006,57.789832940000053],[14.268684972000074,57.790057517000037],[14.269358706000048,57.789608362000081],[14.269583284000078,57.78893462800005],[14.268909550000046,57.788036317000035],[14.269583284000078,57.78736258400005],[14.269583284000078,57.786239695000063],[14.271155328000077,57.784443073000034],[14.270481595000035,57.78354476100003],[14.270930750000048,57.782421872000043],[14.27137990600005,57.782421872000043],[14.272053639000035,57.78376933900006],[14.273625684000024,57.784218495000061],[14.274299417000066,57.78376933900006],[14.274299417000066,57.782871028000045],[14.275422306000053,57.781972717000031],[14.275197728000023,57.781074406000073],[14.274299417000066,57.780625250000071],[14.274299417000066,57.778154894000068],[14.273401106000051,57.777256583000053],[14.272752326000045,57.777418778000083],[14.273176528000022,57.776358272000039],[14.274299417000066,57.776358272000039],[14.275871462000055,57.774561650000066],[14.276994351000042,57.774337072000037],[14.278790973000071,57.775459961000081],[14.279015551000043,57.776133694000066],[14.278566395000041,57.777032005000081],[14.279464707000045,57.777705739000055],[14.279464707000045,57.779053206000071],[14.280587596000032,57.780176095000058],[14.279913862000058,57.781972717000031],[14.278117240000029,57.78219729500006],[14.277892662000056,57.782646450000072],[14.28036301800006,57.783320184000047],[14.280812173000072,57.784218495000061],[14.28036301800006,57.784892228000047],[14.278790973000071,57.785116806000076],[14.278117240000029,57.785790539000061],[14.276994351000042,57.785116806000076],[14.275197728000023,57.787587162000079],[14.274299417000066,57.787138006000077],[14.274523995000038,57.787811739000063],[14.274074839000036,57.788710051000066],[14.274748573000068,57.78893462800005],[14.27497315100004,57.789832940000053],[14.276096040000027,57.790731251000068],[14.275646884000025,57.791629562000082],[14.274074839000036,57.792078718000027],[14.272502795000037,57.791629562000082],[14.27137990600005,57.79252787300004],[14.270257017000063,57.792078718000027],[14.269134128000076,57.792977029000042],[14.268684972000074,57.792752451000069],[14.266663772000072,57.793650762000027]]],[[[14.268235817000061,57.761760715000037],[14.269583284000078,57.762659027000041],[14.270481595000035,57.762659027000041],[14.272278217000064,57.765129382000055],[14.272502795000037,57.766701427000044],[14.271155328000077,57.764904805000072],[14.269583284000078,57.764006493000068],[14.267786661000059,57.76423107100004],[14.266439195000032,57.763557338000055],[14.265316306000045,57.763781916000028],[14.266663772000072,57.763332760000083],[14.266439195000032,57.762659027000041],[14.266888350000045,57.761985293000066],[14.268235817000061,57.761760715000037]]],[[[14.274074839000036,57.765578538000057],[14.27497315100004,57.765578538000057],[14.276096040000027,57.766252271000042],[14.277443506000054,57.768947205000075],[14.276994351000042,57.76962093800006],[14.276096040000027,57.769845516000032],[14.275422306000053,57.76939636000003],[14.27497315100004,57.76804889400006],[14.272951951000039,57.768498049000073],[14.273850262000053,57.768273471000043],[14.274299417000066,57.767375160000029],[14.273401106000051,57.766476849000071],[14.274074839000036,57.765578538000057]]],[[[14.258212555000057,57.768663528000047],[14.257623565000074,57.768884399000058],[14.257680661000052,57.768722627000045],[14.258212555000057,57.768663528000047]]],[[[14.257376394000062,57.769584716000054],[14.25723150500005,57.770743827000047],[14.256823182000062,57.771152150000034],[14.257376394000062,57.769584716000054]]],[[[14.237468659000058,57.776358272000039],[14.239939015000061,57.777481161000082],[14.240612748000046,57.77837947200004],[14.240388170000074,57.778828628000042],[14.244655149000039,57.779502361000027],[14.241511059000061,57.779053206000071],[14.240612748000046,57.779951517000029],[14.241061904000048,57.781298983000056],[14.240388170000074,57.781972717000031],[14.240612748000046,57.782646450000072],[14.241735637000033,57.783095606000074],[14.24308310400005,57.784667650000074],[14.246900926000023,57.785116806000076],[14.247574660000055,57.784218495000061],[14.248472971000069,57.784218495000061],[14.24824839300004,57.784892228000047],[14.248697549000042,57.785565962000078],[14.250269593000041,57.785565962000078],[14.251167905000045,57.786688851000065],[14.253189105000047,57.786239695000063],[14.252739949000045,57.786913428000048],[14.252964527000074,57.787587162000079],[14.254536571000074,57.788485473000037],[14.255210305000048,57.788036317000035],[14.257006927000077,57.788036317000035],[14.258129816000064,57.788485473000037],[14.258803550000039,57.789383784000051],[14.258578972000066,57.790731251000068],[14.257905238000035,57.79118040600008],[14.256782349000048,57.790506673000039],[14.256782349000048,57.790057517000037],[14.254761149000046,57.789608362000081],[14.254536571000074,57.790057517000037],[14.255434883000078,57.790506673000039],[14.255659460000061,57.79118040600008],[14.254761149000046,57.792078718000027],[14.252739949000045,57.79118040600008],[14.252515371000072,57.789832940000053],[14.251167905000045,57.790057517000037],[14.249820438000029,57.789608362000081],[14.249146704000054,57.788260895000064],[14.246451771000068,57.788260895000064],[14.244879726000022,57.787587162000079],[14.244430571000066,57.786913428000048],[14.244655149000039,57.786239695000063],[14.24308310400005,57.786913428000048],[14.242409371000065,57.788036317000035],[14.240388170000074,57.788485473000037],[14.23926528100003,57.78736258400005],[14.239939015000061,57.785790539000061],[14.238142392000043,57.786015117000034],[14.237468659000058,57.785565962000078],[14.237244081000028,57.784892228000047],[14.23791781500006,57.78376933900006],[14.236121192000041,57.783320184000047],[14.235896615000058,57.782646450000072],[14.236345770000071,57.781972717000031],[14.235222881000027,57.781523561000029],[14.235222881000027,57.780176095000058],[14.234324570000069,57.779951517000029],[14.233875414000067,57.778828628000042],[14.234549148000042,57.777930317000028],[14.236121192000041,57.777481161000082],[14.236570348000043,57.776582850000068],[14.237468659000058,57.776358272000039]]],[[[14.270400365000057,57.779392461000043],[14.270032439000033,57.779726939000057],[14.268909550000046,57.779951517000029],[14.270400365000057,57.779392461000043]]],[[[14.248472971000069,57.779502361000027],[14.246900926000023,57.780400672000042],[14.246564060000026,57.780265926000027],[14.248472971000069,57.779502361000027]]]]},"properties":{"ObjectID":5,"FacilityID":1,"Name":"Location 1 : 20 - 25","FromBreak":20,"ToBreak":25,"Shape_Length":0.22556517481009522,"Shape_Area":0.00025038892513839248}},{"type":"Feature","id":6,"geometry":{"type":"MultiPolygon","coordinates":[[[[14.265091728000073,57.790506673000039],[14.264193417000058,57.789608362000081],[14.264417994000041,57.78893462800005],[14.26082475000004,57.78893462800005],[14.258803550000039,57.788036317000035],[14.255210305000048,57.788036317000035],[14.254536571000074,57.788485473000037],[14.252964527000074,57.787587162000079],[14.252739949000045,57.786913428000048],[14.253189105000047,57.786239695000063],[14.251167905000045,57.786688851000065],[14.250269593000041,57.785565962000078],[14.248697549000042,57.785565962000078],[14.24824839300004,57.784892228000047],[14.248472971000069,57.784218495000061],[14.247574660000055,57.784218495000061],[14.246900926000023,57.785116806000076],[14.24308310400005,57.784667650000074],[14.241735637000033,57.783095606000074],[14.240612748000046,57.782646450000072],[14.240388170000074,57.781972717000031],[14.241061904000048,57.781298983000056],[14.240612748000046,57.779951517000029],[14.241511059000061,57.779053206000071],[14.244655149000039,57.779502361000027],[14.246900926000023,57.780400672000042],[14.246999179000056,57.780344528000057],[14.246451771000068,57.781074406000073],[14.247350082000025,57.78219729500006],[14.248922127000071,57.781523561000029],[14.250269593000041,57.783095606000074],[14.253862838000032,57.782646450000072],[14.255210305000048,57.784218495000061],[14.256333194000035,57.784443073000034],[14.256782349000048,57.785565962000078],[14.257905238000035,57.785565962000078],[14.259477283000024,57.786464273000036],[14.259926438000036,57.78736258400005],[14.261273905000053,57.787587162000079],[14.264193417000058,57.787138006000077],[14.264417994000041,57.786464273000036],[14.26756208300003,57.785116806000076],[14.26756208300003,57.78354476100003],[14.269583284000078,57.783320184000047],[14.270706173000065,57.78219729500006],[14.270481595000035,57.781523561000029],[14.268909550000046,57.780400672000042],[14.268722402000037,57.780512961000056],[14.268909550000046,57.779951517000029],[14.270032439000033,57.779726939000057],[14.272502795000037,57.777481161000082],[14.273401106000051,57.777256583000053],[14.274299417000066,57.778154894000068],[14.274299417000066,57.780625250000071],[14.275197728000023,57.781074406000073],[14.275422306000053,57.781972717000031],[14.274299417000066,57.782871028000045],[14.274299417000066,57.78376933900006],[14.273625684000024,57.784218495000061],[14.272053639000035,57.78376933900006],[14.27137990600005,57.782421872000043],[14.270930750000048,57.782421872000043],[14.270481595000035,57.78354476100003],[14.271155328000077,57.784443073000034],[14.269583284000078,57.786239695000063],[14.269583284000078,57.78736258400005],[14.268909550000046,57.788036317000035],[14.269583284000078,57.78893462800005],[14.269358706000048,57.789608362000081],[14.268684972000074,57.790057517000037],[14.26621461700006,57.789832940000053],[14.265091728000073,57.790506673000039]]],[[[14.266439195000032,57.763557338000055],[14.267786661000059,57.76423107100004],[14.269583284000078,57.764006493000068],[14.271155328000077,57.764904805000072],[14.272502795000037,57.766701427000044],[14.273401106000051,57.766476849000071],[14.274299417000066,57.767375160000029],[14.273850262000053,57.768273471000043],[14.272951951000039,57.768498049000073],[14.273401106000051,57.76939636000003],[14.272951951000039,57.770070094000062],[14.273625684000024,57.770294672000034],[14.273850262000053,57.771192983000049],[14.272951951000039,57.772091294000063],[14.272053639000035,57.771866716000034],[14.272727373000066,57.771642138000061],[14.273176528000022,57.770743827000047],[14.271829062000052,57.76939636000003],[14.270481595000035,57.76962093800006],[14.269583284000078,57.768498049000073],[14.268011239000032,57.768273471000043],[14.268011239000032,57.767375160000029],[14.267337506000047,57.766926005000073],[14.265491661000056,57.767479758000036],[14.26599003900003,57.766926005000073],[14.264867150000043,57.765578538000057],[14.264867150000043,57.76445564900007],[14.265316306000045,57.763781916000028],[14.266439195000032,57.763557338000055]]],[[[14.261723061000055,57.768273471000043],[14.258803550000039,57.768498049000073],[14.258578972000066,57.769171783000047],[14.257456083000022,57.76962093800006],[14.257331317000023,57.769945328000063],[14.257456083000022,57.768947205000075],[14.259252705000051,57.768273471000043],[14.261723061000055,57.768273471000043]]],[[[14.256894638000063,57.771080694000034],[14.256333194000035,57.772540450000065],[14.256557772000065,57.771417561000078],[14.256894638000063,57.771080694000034]]],[[[14.254648860000032,57.772877316000063],[14.254536571000074,57.77321418300005],[14.254536571000074,57.772989605000078],[14.254648860000032,57.772877316000063]]],[[[14.268684972000074,57.779053206000071],[14.267251638000062,57.780896064000046],[14.267112928000074,57.780849828000044],[14.268684972000074,57.779053206000071]]],[[[14.268399146000036,57.780706915000053],[14.267786661000059,57.781074406000073],[14.267475707000074,57.780970754000066],[14.268399146000036,57.780706915000053]]]]},"properties":{"ObjectID":6,"FacilityID":1,"Name":"Location 1 : 15 - 20","FromBreak":15,"ToBreak":20,"Shape_Length":0.1633395576745271,"Shape_Area":0.00016846226740367546}},{"type":"Feature","id":7,"geometry":{"type":"MultiPolygon","coordinates":[[[[14.261273905000053,57.787587162000079],[14.259926438000036,57.78736258400005],[14.259477283000024,57.786464273000036],[14.257905238000035,57.785565962000078],[14.256782349000048,57.785565962000078],[14.256333194000035,57.784443073000034],[14.255210305000048,57.784218495000061],[14.253862838000032,57.782646450000072],[14.250269593000041,57.783095606000074],[14.248922127000071,57.781523561000029],[14.247350082000025,57.78219729500006],[14.246451771000068,57.781074406000073],[14.247125504000053,57.780176095000058],[14.248472971000069,57.779502361000027],[14.250494171000071,57.779502361000027],[14.25184163800003,57.778154894000068],[14.25184163800003,57.779502361000027],[14.252515371000072,57.779951517000029],[14.253638260000059,57.779502361000027],[14.254311994000034,57.780176095000058],[14.255884038000033,57.780400672000042],[14.256557772000065,57.781298983000056],[14.257680661000052,57.781748139000058],[14.258129816000064,57.782646450000072],[14.259926438000036,57.782871028000045],[14.260375594000038,57.783993917000032],[14.261273905000053,57.784667650000074],[14.262172216000067,57.784218495000061],[14.26239679400004,57.78354476100003],[14.263744261000056,57.783320184000047],[14.265540883000028,57.781298983000056],[14.266888350000045,57.781298983000056],[14.267219307000062,57.780885288000036],[14.267786661000059,57.781074406000073],[14.268909550000046,57.780400672000042],[14.270481595000035,57.781523561000029],[14.270706173000065,57.78219729500006],[14.269583284000078,57.783320184000047],[14.26756208300003,57.78354476100003],[14.26756208300003,57.785116806000076],[14.264417994000041,57.786464273000036],[14.264193417000058,57.787138006000077],[14.261273905000053,57.787587162000079]]],[[[14.267337506000047,57.766926005000073],[14.268011239000032,57.767375160000029],[14.268011239000032,57.768273471000043],[14.269583284000078,57.768498049000073],[14.270481595000035,57.76962093800006],[14.271829062000052,57.76939636000003],[14.273176528000022,57.770743827000047],[14.272727373000066,57.771642138000061],[14.272053639000035,57.771866716000034],[14.272727373000066,57.77321418300005],[14.272727373000066,57.774561650000066],[14.272502795000037,57.773887916000035],[14.270706173000065,57.772540450000065],[14.268684972000074,57.772540450000065],[14.26621461700006,57.770968405000076],[14.265316306000045,57.770968405000076],[14.263295105000054,57.769845516000032],[14.26239679400004,57.770070094000062],[14.261273905000053,57.771192983000049],[14.260151016000066,57.771417561000078],[14.259926438000036,57.772091294000063],[14.258578972000066,57.771866716000034],[14.258129816000064,57.772315872000036],[14.256557772000065,57.772315872000036],[14.256360581000024,57.772469242000057],[14.257456083000022,57.76962093800006],[14.258578972000066,57.769171783000047],[14.258803550000039,57.768498049000073],[14.261723061000055,57.768273471000043],[14.263070528000071,57.769171783000047],[14.263968839000029,57.769171783000047],[14.265091728000073,57.767599738000058],[14.267337506000047,57.766926005000073]]],[[[14.255434883000078,57.772091294000063],[14.256294137000054,57.77252092100008],[14.254536571000074,57.773887916000035],[14.254087416000061,57.774561650000066],[14.254761149000046,57.772540450000065],[14.255434883000078,57.772091294000063]]],[[[14.272727373000066,57.774561650000066],[14.271829062000052,57.776133694000066],[14.270706173000065,57.777032005000081],[14.271155328000077,57.777705739000055],[14.270930750000048,57.77837947200004],[14.26960970500005,57.77877578600004],[14.270032439000033,57.777930317000028],[14.269358706000048,57.777032005000081],[14.270032439000033,57.776358272000039],[14.270032439000033,57.775684539000054],[14.272053639000035,57.775684539000054],[14.272727373000066,57.774561650000066]]],[[[14.254428774000075,57.776097762000063],[14.254536571000074,57.776582850000068],[14.254344076000052,57.776775345000033],[14.254428774000075,57.776097762000063]]],[[[14.253937697000026,57.777181724000059],[14.253638260000059,57.777481161000082],[14.25184163800003,57.778154894000068],[14.25206621600006,57.777930317000028],[14.253937697000026,57.777181724000059]]]]},"properties":{"ObjectID":7,"FacilityID":1,"Name":"Location 1 : 10 - 15","FromBreak":10,"ToBreak":15,"Shape_Length":0.13581613520179134,"Shape_Area":0.00013447820534189144}},{"type":"Feature","id":8,"geometry":{"type":"Polygon","coordinates":[[[14.261273905000053,57.784667650000074],[14.260375594000038,57.783993917000032],[14.259926438000036,57.782871028000045],[14.258129816000064,57.782646450000072],[14.257680661000052,57.781748139000058],[14.256557772000065,57.781298983000056],[14.255884038000033,57.780400672000042],[14.254311994000034,57.780176095000058],[14.253638260000059,57.779502361000027],[14.252515371000072,57.779951517000029],[14.25184163800003,57.779502361000027],[14.25184163800003,57.778154894000068],[14.253638260000059,57.777481161000082],[14.254536571000074,57.776582850000068],[14.254087416000061,57.774561650000066],[14.254536571000074,57.773887916000035],[14.256557772000065,57.772315872000036],[14.258129816000064,57.772315872000036],[14.258578972000066,57.771866716000034],[14.259926438000036,57.772091294000063],[14.260151016000066,57.771417561000078],[14.261273905000053,57.771192983000049],[14.26239679400004,57.770070094000062],[14.263295105000054,57.769845516000032],[14.265316306000045,57.770968405000076],[14.26621461700006,57.770968405000076],[14.268684972000074,57.772540450000065],[14.270706173000065,57.772540450000065],[14.272502795000037,57.773887916000035],[14.272727373000066,57.774561650000066],[14.272053639000035,57.775684539000054],[14.270032439000033,57.775684539000054],[14.270032439000033,57.776358272000039],[14.269358706000048,57.777032005000081],[14.270032439000033,57.777930317000028],[14.269583284000078,57.778828628000042],[14.268684972000074,57.779053206000071],[14.266888350000045,57.781298983000056],[14.265540883000028,57.781298983000056],[14.263744261000056,57.783320184000047],[14.26239679400004,57.78354476100003],[14.262172216000067,57.784218495000061],[14.261273905000053,57.784667650000074]],[[14.263295105000054,57.773663338000063],[14.261273905000053,57.775010805000079],[14.257905238000035,57.77478622700005],[14.255210305000048,57.776807428000041],[14.255210305000048,57.777930317000028],[14.257006927000077,57.778604050000069],[14.258129816000064,57.779951517000029],[14.26239679400004,57.780849828000044],[14.263519683000027,57.780400672000042],[14.263744261000056,57.779726939000057],[14.264867150000043,57.779502361000027],[14.265091728000073,57.778828628000042],[14.26599003900003,57.778604050000069],[14.267337506000047,57.777256583000053],[14.267112928000074,57.775909116000037],[14.266439195000032,57.775459961000081],[14.265540883000028,57.775684539000054],[14.265091728000073,57.774112494000065],[14.263295105000054,57.773663338000063]]]},"properties":{"ObjectID":8,"FacilityID":1,"Name":"Location 1 : 5 - 10","FromBreak":5,"ToBreak":10,"Shape_Length":0.090619216012227971,"Shape_Area":0.00011534526122872833}},{"type":"Feature","id":9,"geometry":{"type":"Polygon","coordinates":[[[14.26239679400004,57.780849828000044],[14.258129816000064,57.779951517000029],[14.257006927000077,57.778604050000069],[14.255210305000048,57.777930317000028],[14.255210305000048,57.776807428000041],[14.257905238000035,57.77478622700005],[14.261273905000053,57.775010805000079],[14.263295105000054,57.773663338000063],[14.265091728000073,57.774112494000065],[14.265540883000028,57.775684539000054],[14.266439195000032,57.775459961000081],[14.267112928000074,57.775909116000037],[14.267337506000047,57.777256583000053],[14.26599003900003,57.778604050000069],[14.265091728000073,57.778828628000042],[14.264867150000043,57.779502361000027],[14.263744261000056,57.779726939000057],[14.263519683000027,57.780400672000042],[14.26239679400004,57.780849828000044]]]},"properties":{"ObjectID":9,"FacilityID":1,"Name":"Location 1 : 0 - 5","FromBreak":0,"ToBreak":5,"Shape_Length":0.031525234481812263,"Shape_Area":5.4823051606911182e-05}}]}